SAR-LUPE 2              
1 31797U 07030A   26195.23162006  .00021468  00000+0  33812-3 0  9990
2 31797  98.1064 303.1047 0004858 205.5119 154.5893 15.53600097 61135
SAPPHIRE                
1 39088U 13009C   26195.14148780  .00000041  00000+0  29109-4 0  9996
2 39088  98.4273  13.9589 0011522 162.9510 197.2065 14.35247401700449
PRAETORIAN SDA_602      
1 65565U 25203A   26194.91696289  .00000018  00000+0  51012-5 0  9993
2 65565  81.3042 346.0190 0007033 120.5267 239.6585 13.83887784 42399
PRAETORIAN SDA_603      
1 65566U 25203B   26194.94531654  .00000069  00000+0  51715-4 0  9996
2 65566  81.3048 345.9144 0010756 117.9913 242.2333 13.83961485 42401
PRAETORIAN SDA_604      
1 65567U 25203C   26194.90971506  .00000022  00000+0  90414-5 0  9996
2 65567  81.3064 346.4013 0006541 124.3066 235.8710 13.83049978 42376
PRAETORIAN SDA_605      
1 65568U 25203D   26194.86954329  .00000019  00000+0  63107-5 0  9991
2 65568  81.3029 346.0799 0009290 116.4481 243.7629 13.83199875 42382
PRAETORIAN SDA_606      
1 65569U 25203E   26194.92705250  .00000024  00000+0  11332-4 0  9994
2 65569  81.3065 346.2643 0007141 118.9943 241.1929 13.83200041 42389
PRAETORIAN SDA_607      
1 65570U 25203F   26194.91792237  .00000085  00000+0  66049-4 0  9998
2 65570  81.3050 345.8941 0009911 117.6469 242.5694 13.83758399 42408
PRAETORIAN SDA_608      
1 65571U 25203G   26194.90050295  .00000027  00000+0  13920-4 0  9995
2 65571  81.3018 346.0746 0007028 123.2430 236.9401 13.83819320 42389
PRAETORIAN SDA_609      
1 65572U 25203H   26194.89784786  .00000099  00000+0  78062-4 0  9990
2 65572  81.3059 346.0556 0007817 117.8390 242.3560 13.84212205 42392
PRAETORIAN SDA_610      
1 65573U 25203J   26194.80980948  .00000091  00000+0  71722-4 0  9998
2 65573  81.3020 346.1208 0007738 123.1661 237.0238 13.83528144 42371
PRAETORIAN SDA_611      
1 65574U 25203K   26194.89083294 -.00000142  00000+0 -13991-3 0  9998
2 65574  81.3020 346.2277 0006583 126.7642 233.4119 13.83311452 42374
PRAETORIAN SDA_612      
1 65575U 25203L   26194.91936566  .00000126  00000+0  10053-3 0  9997
2 65575  81.3039 345.7225 0010249 117.9580 242.2615 13.85041382 42417
PRAETORIAN SDA_613      
1 65576U 25203M   26194.90807154  .00000029  00000+0  15821-4 0  9998
2 65576  81.3011 346.2300 0006748 117.7914 242.3926 13.82767564 42371
PRAETORIAN SDA_614      
1 65577U 25203N   26194.91359208  .00000015  00000+0  26901-5 0  9999
2 65577  81.3025 345.8122 0008193 116.2307 243.9693 13.84778475 42418
PRAETORIAN SDA_615      
1 65578U 25203P   26194.89705566  .00000104  00000+0  82029-4 0  9990
2 65578  81.3037 345.8084 0010139 116.8952 243.3242 13.84438007 42401
PRAETORIAN SDA_616      
1 65579U 25203Q   26194.89084250  .00000100  00000+0  80469-4 0  9993
2 65579  81.3073 346.3912 0006389 125.0134 235.1622 13.83270946 42376
PRAETORIAN SDA_617      
1 65580U 25203R   26194.91472595  .00000033  00000+0  19100-4 0  9990
2 65580  81.3049 346.1979 0008456 116.6465 243.5558 13.83152051 42380
PRAETORIAN SDA_618      
1 65581U 25203S   26194.93648360  .00000125  00000+0  10142-3 0  9996
2 65581  81.3031 345.7030 0010752 119.8223 240.4004 13.84226125 42415
PRAETORIAN SDA_619      
1 65582U 25203T   26194.91120787  .00000116  00000+0  93756-4 0  9996
2 65582  81.3057 346.0541 0009222 117.5350 242.6744 13.83806118 43029
PRAETORIAN SDA_620      
1 65583U 25203U   26194.87341659  .00000129  00000+0  10686-3 0  9999
2 65583  81.3044 346.1200 0008561 114.7091 245.4957 13.83207388 42384
PRAETORIAN SDA_621      
1 65584U 25203V   26194.91304383  .00000013  00000+0  62683-6 0  9997
2 65584  81.3032 345.9847 0008473 111.8520 248.3539 13.83803655 42391
PRAETORIAN SDA_601      
1 65585U 25203W   26194.89590896  .00000023  00000+0  10287-4 0  9993
2 65585  81.3050 346.3271 0006555 127.4455 232.7298 13.83170126 42374
VICTUS HAZE PUMA        
1 69646U 26142A   26194.66617709  .00002127  00000+0  98816-4 0  9997
2 69646  97.4471  91.9874 0025032 271.5686  88.2682 15.20841534  3695
